[{"OBJECT_NAME":"FLOCK 4G-13","OBJECT_ID":"2025-009N","EPOCH":"2026-04-25T18:09:42.070752","MEAN_MOTION":15.38058703,"ECCENTRICITY":0.00058099,"INCLINATION":97.3974,"RA_OF_ASC_NODE":198.352,"ARG_OF_PERICENTER":149.4558,"MEAN_ANOMALY":210.7026,"EPHEMERIS_TYPE":0,"CLASSIFICATION_TYPE":"U","NORAD_CAT_ID":62621,"ELEMENT_SET_NO":999,"REV_AT_EPOCH":7092,"BSTAR":0.0015173735,"MEAN_MOTION_DOT":0.00057127,"MEAN_MOTION_DDOT":0},{"OBJECT_NAME":"FLOCK 4G-9","OBJECT_ID":"2025-009P","EPOCH":"2026-04-26T11:00:35.957664","MEAN_MOTION":15.27146014,"ECCENTRICITY":0.0005944,"INCLINATION":97.3962,"RA_OF_ASC_NODE":197.8256,"ARG_OF_PERICENTER":137.1011,"MEAN_ANOMALY":223.0692,"EPHEMERIS_TYPE":0,"CLASSIFICATION_TYPE":"U","NORAD_CAT_ID":62622,"ELEMENT_SET_NO":999,"REV_AT_EPOCH":7096,"BSTAR":0.00042729,"MEAN_MOTION_DOT":0.00011311,"MEAN_MOTION_DDOT":0},{"OBJECT_NAME":"FLOCK 4G-7","OBJECT_ID":"2025-009R","EPOCH":"2026-04-26T11:36:04.190976","MEAN_MOTION":15.28223313,"ECCENTRICITY":0.0004181,"INCLINATION":97.3948,"RA_OF_ASC_NODE":198.1374,"ARG_OF_PERICENTER":130.4806,"MEAN_ANOMALY":229.6798,"EPHEMERIS_TYPE":0,"CLASSIFICATION_TYPE":"U","NORAD_CAT_ID":62624,"ELEMENT_SET_NO":999,"REV_AT_EPOCH":7100,"BSTAR":0.0004753,"MEAN_MOTION_DOT":0.0001301,"MEAN_MOTION_DDOT":0},{"OBJECT_NAME":"FLOCK 4G-12","OBJECT_ID":"2025-009S","EPOCH":"2026-04-26T11:20:30.791040","MEAN_MOTION":15.28084399,"ECCENTRICITY":0.0005721,"INCLINATION":97.4023,"RA_OF_ASC_NODE":198.6079,"ARG_OF_PERICENTER":128.2458,"MEAN_ANOMALY":231.9297,"EPHEMERIS_TYPE":0,"CLASSIFICATION_TYPE":"U","NORAD_CAT_ID":62625,"ELEMENT_SET_NO":999,"REV_AT_EPOCH":7100,"BSTAR":0.00050547,"MEAN_MOTION_DOT":0.00013786,"MEAN_MOTION_DDOT":0},{"OBJECT_NAME":"FLOCK 4G-11","OBJECT_ID":"2025-009W","EPOCH":"2026-04-25T22:35:34.052640","MEAN_MOTION":15.28264246,"ECCENTRICITY":0.00041883,"INCLINATION":97.3926,"RA_OF_ASC_NODE":197.7245,"ARG_OF_PERICENTER":132.8066,"MEAN_ANOMALY":227.3526,"EPHEMERIS_TYPE":0,"CLASSIFICATION_TYPE":"U","NORAD_CAT_ID":62629,"ELEMENT_SET_NO":999,"REV_AT_EPOCH":7093,"BSTAR":0.0004621402,"MEAN_MOTION_DOT":0.00012663,"MEAN_MOTION_DDOT":0},{"OBJECT_NAME":"PELICAN-2","OBJECT_ID":"2025-009Y","EPOCH":"2026-04-25T19:47:41.820576","MEAN_MOTION":15.40471304,"ECCENTRICITY":0.00035583,"INCLINATION":97.3598,"RA_OF_ASC_NODE":206.6308,"ARG_OF_PERICENTER":98.4274,"MEAN_ANOMALY":261.7376,"EPHEMERIS_TYPE":0,"CLASSIFICATION_TYPE":"U","NORAD_CAT_ID":62631,"ELEMENT_SET_NO":999,"REV_AT_EPOCH":7149,"BSTAR":0.00085504617,"MEAN_MOTION_DOT":0.00034681,"MEAN_MOTION_DDOT":0},{"OBJECT_NAME":"FLOCK 4G-26","OBJECT_ID":"2025-009AA","EPOCH":"2026-04-26T11:37:52.917600","MEAN_MOTION":15.28343302,"ECCENTRICITY":0.0004978,"INCLINATION":97.4019,"RA_OF_ASC_NODE":198.7533,"ARG_OF_PERICENTER":121.8296,"MEAN_ANOMALY":238.3428,"EPHEMERIS_TYPE":0,"CLASSIFICATION_TYPE":"U","NORAD_CAT_ID":62633,"ELEMENT_SET_NO":999,"REV_AT_EPOCH":7101,"BSTAR":0.00049283,"MEAN_MOTION_DOT":0.00013544,"MEAN_MOTION_DDOT":0},{"OBJECT_NAME":"FLOCK 4G-28","OBJECT_ID":"2025-009AB","EPOCH":"2026-04-26T12:52:45.073056","MEAN_MOTION":15.33987371,"ECCENTRICITY":0.0003393,"INCLINATION":97.4022,"RA_OF_ASC_NODE":200.9263,"ARG_OF_PERICENTER":118.4934,"MEAN_ANOMALY":241.6651,"EPHEMERIS_TYPE":0,"CLASSIFICATION_TYPE":"U","NORAD_CAT_ID":62634,"ELEMENT_SET_NO":999,"REV_AT_EPOCH":7116,"BSTAR":0.00032039,"MEAN_MOTION_DOT":0.0001046,"MEAN_MOTION_DDOT":0},{"OBJECT_NAME":"FLOCK 4G-20","OBJECT_ID":"2025-009AD","EPOCH":"2026-04-25T17:54:26.299872","MEAN_MOTION":15.43911633,"ECCENTRICITY":0.0004246,"INCLINATION":97.3889,"RA_OF_ASC_NODE":199.0002,"ARG_OF_PERICENTER":171.9488,"MEAN_ANOMALY":188.183,"EPHEMERIS_TYPE":0,"CLASSIFICATION_TYPE":"U","NORAD_CAT_ID":62636,"ELEMENT_SET_NO":999,"REV_AT_EPOCH":7100,"BSTAR":0.0016522422,"MEAN_MOTION_DOT":0.00075643,"MEAN_MOTION_DDOT":0},{"OBJECT_NAME":"FLOCK 4G-24","OBJECT_ID":"2025-009AE","EPOCH":"2026-04-25T17:36:16.980768","MEAN_MOTION":15.28870309,"ECCENTRICITY":0.00045991,"INCLINATION":97.4022,"RA_OF_ASC_NODE":198.2505,"ARG_OF_PERICENTER":114.4374,"MEAN_ANOMALY":245.7346,"EPHEMERIS_TYPE":0,"CLASSIFICATION_TYPE":"U","NORAD_CAT_ID":62637,"ELEMENT_SET_NO":999,"REV_AT_EPOCH":7091,"BSTAR":0.00038522223,"MEAN_MOTION_DOT":0.00010738,"MEAN_MOTION_DDOT":0},{"OBJECT_NAME":"FLOCK 4G-3","OBJECT_ID":"2025-009AG","EPOCH":"2026-04-25T21:27:54.515808","MEAN_MOTION":15.28280879,"ECCENTRICITY":0.00044699,"INCLINATION":97.4027,"RA_OF_ASC_NODE":198.1839,"ARG_OF_PERICENTER":119.8579,"MEAN_ANOMALY":240.3106,"EPHEMERIS_TYPE":0,"CLASSIFICATION_TYPE":"U","NORAD_CAT_ID":62639,"ELEMENT_SET_NO":999,"REV_AT_EPOCH":7091,"BSTAR":0.00044163581,"MEAN_MOTION_DOT":0.00012103,"MEAN_MOTION_DDOT":0},{"OBJECT_NAME":"FLOCK 4G-27","OBJECT_ID":"2025-009AJ","EPOCH":"2026-04-26T12:01:35.365728","MEAN_MOTION":15.28268122,"ECCENTRICITY":0.0003741,"INCLINATION":97.3939,"RA_OF_ASC_NODE":198.2359,"ARG_OF_PERICENTER":121.9117,"MEAN_ANOMALY":238.2487,"EPHEMERIS_TYPE":0,"CLASSIFICATION_TYPE":"U","NORAD_CAT_ID":62641,"ELEMENT_SET_NO":999,"REV_AT_EPOCH":7100,"BSTAR":0.00052764,"MEAN_MOTION_DOT":0.00014472,"MEAN_MOTION_DDOT":0},{"OBJECT_NAME":"FLOCK 4G-29","OBJECT_ID":"2025-009AK","EPOCH":"2026-04-26T11:48:06.372288","MEAN_MOTION":15.28388712,"ECCENTRICITY":0.0004467,"INCLINATION":97.4023,"RA_OF_ASC_NODE":198.7348,"ARG_OF_PERICENTER":115.3092,"MEAN_ANOMALY":244.8611,"EPHEMERIS_TYPE":0,"CLASSIFICATION_TYPE":"U","NORAD_CAT_ID":62642,"ELEMENT_SET_NO":999,"REV_AT_EPOCH":7100,"BSTAR":0.000487,"MEAN_MOTION_DOT":0.000134,"MEAN_MOTION_DDOT":0},{"OBJECT_NAME":"FLOCK 4G-22","OBJECT_ID":"2025-009AN","EPOCH":"2026-04-25T18:47:16.046304","MEAN_MOTION":15.28236484,"ECCENTRICITY":0.00039934,"INCLINATION":97.4011,"RA_OF_ASC_NODE":198.0953,"ARG_OF_PERICENTER":117.0545,"MEAN_ANOMALY":243.1103,"EPHEMERIS_TYPE":0,"CLASSIFICATION_TYPE":"U","NORAD_CAT_ID":62645,"ELEMENT_SET_NO":999,"REV_AT_EPOCH":7091,"BSTAR":0.00038574516,"MEAN_MOTION_DOT":0.00010545,"MEAN_MOTION_DDOT":0},{"OBJECT_NAME":"FLOCK 4G-25","OBJECT_ID":"2025-009AP","EPOCH":"2026-04-26T11:41:21.236640","MEAN_MOTION":15.28439423,"ECCENTRICITY":0.000351,"INCLINATION":97.4014,"RA_OF_ASC_NODE":198.8428,"ARG_OF_PERICENTER":121.1798,"MEAN_ANOMALY":238.9786,"EPHEMERIS_TYPE":0,"CLASSIFICATION_TYPE":"U","NORAD_CAT_ID":62646,"ELEMENT_SET_NO":999,"REV_AT_EPOCH":7102,"BSTAR":0.00042106,"MEAN_MOTION_DOT":0.0001159,"MEAN_MOTION_DDOT":0},{"OBJECT_NAME":"FLOCK 4G-23","OBJECT_ID":"2025-009AQ","EPOCH":"2026-04-26T11:04:51.629952","MEAN_MOTION":15.28755204,"ECCENTRICITY":0.0002734,"INCLINATION":97.3942,"RA_OF_ASC_NODE":198.3267,"ARG_OF_PERICENTER":136.4376,"MEAN_ANOMALY":223.708,"EPHEMERIS_TYPE":0,"CLASSIFICATION_TYPE":"U","NORAD_CAT_ID":62647,"ELEMENT_SET_NO":999,"REV_AT_EPOCH":7101,"BSTAR":0.0016787,"MEAN_MOTION_DOT":0.00047095,"MEAN_MOTION_DDOT":0}]
