FLOCK 4G-13             
1 62621U 25009N   26115.75673693  .00057127  00000+0  15174-2 0  9995
2 62621  97.3974 198.3520 0005809 149.4558 210.7026 15.38058703 70920
FLOCK 4G-9              
1 62622U 25009P   26116.45874951  .00011311  00000+0  42729-3 0  9996
2 62622  97.3962 197.8256 0005944 137.1011 223.0692 15.27146014 70967
FLOCK 4G-7              
1 62624U 25009R   26116.48338184  .00013010  00000+0  47530-3 0  9997
2 62624  97.3948 198.1374 0004181 130.4806 229.6798 15.28223313 71002
FLOCK 4G-12             
1 62625U 25009S   26116.47257860  .00013786  00000+0  50547-3 0  9990
2 62625  97.4023 198.6079 0005721 128.2458 231.9297 15.28084399 71003
FLOCK 4G-11             
1 62629U 25009W   26115.94136635  .00012663  00000+0  46214-3 0  9990
2 62629  97.3926 197.7245 0004188 132.8066 227.3526 15.28264246 70931
PELICAN-2               
1 62631U 25009Y   26115.82478959  .00034681  00000+0  85505-3 0  9998
2 62631  97.3598 206.6308 0003558  98.4274 261.7376 15.40471304 71493
FLOCK 4G-26             
1 62633U 25009AA  26116.48464025  .00013544  00000+0  49283-3 0  9990
2 62633  97.4019 198.7533 0004978 121.8296 238.3428 15.28343302 71015
FLOCK 4G-28             
1 62634U 25009AB  26116.53663279  .00010460  00000+0  32039-3 0  9994
2 62634  97.4022 200.9263 0003393 118.4934 241.6651 15.33987371 71164
FLOCK 4G-20             
1 62636U 25009AD  26115.74613773  .00075643  00000+0  16522-2 0  9994
2 62636  97.3889 199.0002 0004246 171.9488 188.1830 15.43911633 71007
FLOCK 4G-24             
1 62637U 25009AE  26115.73352987  .00010738  00000+0  38522-3 0  9990
2 62637  97.4022 198.2505 0004599 114.4374 245.7346 15.28870309 70912
FLOCK 4G-3              
1 62639U 25009AG  26115.89438097  .00012103  00000+0  44164-3 0  9993
2 62639  97.4027 198.1839 0004469 119.8579 240.3106 15.28280879 70912
FLOCK 4G-27             
1 62641U 25009AJ  26116.50110377  .00014472  00000+0  52764-3 0  9999
2 62641  97.3939 198.2359 0003741 121.9117 238.2487 15.28268122 71004
FLOCK 4G-29             
1 62642U 25009AK  26116.49174042  .00013400  00000+0  48700-3 0  9992
2 62642  97.4023 198.7348 0004467 115.3092 244.8611 15.28388712 71008
FLOCK 4G-22             
1 62645U 25009AN  26115.78282461  .00010545  00000+0  38575-3 0  9997
2 62645  97.4011 198.0953 0003993 117.0545 243.1103 15.28236484 70913
FLOCK 4G-25             
1 62646U 25009AP  26116.48705135  .00011590  00000+0  42106-3 0  9990
2 62646  97.4014 198.8428 0003510 121.1798 238.9786 15.28439423 71023
FLOCK 4G-23             
1 62647U 25009AQ  26116.46170868  .00047095  00000+0  16787-2 0  9992
2 62647  97.3942 198.3267 0002734 136.4376 223.7080 15.28755204 71013
